{
  "norad_id": 58721,
  "name": "STARLINK-30972",
  "history": [
    {
      "epoch": "2026-03-28T13:06:18.865152Z",
      "apogee_km": 476.0444219386118,
      "perigee_km": 474.4146913714394,
      "latitude_deg": 4.7323309508978086e-05,
      "longitude_deg": 119.70838157419863,
      "height_km": 475.75094109197204,
      "semi_major_axis_km": 6853.366556655025,
      "eccentricity": 0.0001189,
      "inclination_deg": 53.16,
      "raan_deg": 142.2519,
      "arg_perigee_deg": 62.443,
      "mean_anomaly_deg": 297.6692,
      "mean_motion_rev_day": 15.30195148
    }
  ]
}