{"fetched_at":"2026-03-29T02:12:04Z","count":15717,"tles":[{"name":"STARLINK-30972","line1":"1 58721U 24002S   26087.54605168  .00000699  00000+0  35719-4 0  9991","line2":"2 58721  53.1600 142.2519 0001188  62.4430 297.6692 15.30195148124905","category":"Starlink"}]}